QZS-3 (MICHIBIKI-3)     
1 42917U 17048A   26196.79606913 -.00000358  00000+0  00000+0 0  9993
2 42917   0.0645 214.0299 0002547 272.5182 220.7141  1.00271863 32541
AMAZONAS 5              
1 42934U 17053A   26195.04791514 -.00000288  00000+0  00000+0 0  9999
2 42934   0.0321 328.7293 0001029 114.1312 165.2908  1.00268891 32314
ASIASAT 9               
1 42942U 17057A   26196.86637472 -.00000370  00000+0  00000+0 0  9997
2 42942   0.0138  40.1044 0002424  67.9630 259.6457  1.00273898 32147
INTELSAT 37E (IS-37E)   
1 42950U 17059A   26196.76735436 -.00000152  00000+0  00000+0 0  9994
2 42950   0.0169  49.6350 0002607  74.0431  68.1552  1.00269761 32351
BSAT-4A                 
1 42951U 17059B   26194.51146824 -.00000354  00000+0  00000+0 0  9997
2 42951   0.0357  21.9752 0003393  56.7278 146.6395  1.00272286 32060
QZS-4 (MICHIBIKI-4)     
1 42965U 17062A   26195.60848749 -.00000342  00000+0  00000+0 0  9999
2 42965  40.0921 343.1359 0747384 268.5643  38.8857  1.00290232 32079
SES-11 (ECHOSTAR 105)   
1 42967U 17063A   26196.67882836 -.00000099  00000+0  00000+0 0  9994
2 42967   0.0365 300.2454 0002672 163.3516 329.3441  1.00271084 32008
KOREASAT 5A             
1 42984U 17067A   26196.79329580 -.00000368  00000+0  00000+0 0  9991
2 42984   0.0328 288.2466 0000700 173.3705 230.7389  1.00270226 31816
ALCOMSAT 1              
1 43039U 17078A   26196.76605436 -.00000197  00000+0  00000+0 0  9999
2 43039   0.0511 261.9245 0002237 208.7737  73.8622  1.00268663 31582
SBIRS GEO-3 (USA 282)   
1 43162U 18009A   26196.73936090  .00000117  00000+0  00000+0 0  9992
2 43162   2.2052  13.4305 0001743  98.9634 287.9605  1.00270606 31136
AL YAH 3                
1 43174U 18012A   26196.76692103 -.00000167  00000+0  00000+0 0  9992
2 43174   1.6236  82.7591 0003550  30.6236  76.2023  1.00270671 31136
SES-14                  
1 43175U 18012B   26196.76154769 -.00000289  00000+0  00000+0 0  9999
2 43175   0.0141  35.1524 0000803  85.5440  39.5507  1.00271097  7312
GOES 17                 
1 43226U 18022A   26196.61065404 -.00000193  00000+0  00000+0 0  9992
2 43226   1.0080  85.2498 0000551  79.8372 258.7068  1.00270998 30703
HISPASAT 30W-6          
1 43228U 18023A   26195.12538163 -.00000222  00000+0  00000+0 0  9990
2 43228   0.0444  50.2849 0005130  39.9946 216.8713  1.00270644 30678
SUPERBIRD-B3            
1 43271U 18033A   26196.73173420 -.00000103  00000+0  00000+0 0  9996
2 43271   0.0167  27.5053 0001057 101.4944 230.0013  1.00270817 30346
HYLAS 4                 
1 43272U 18033B   26196.54072455 -.00000244  00000+0  00000+0 0  9998
2 43272   0.0205 300.3338 0000622 217.4704 296.7451  1.00270958 30359
IRNSS-1I                
1 43286U 18035A   26196.75461519  .00000058  00000+0  00000+0 0  9993
2 43286  28.8196  73.7504 0018429 178.5609   8.0026  1.00271937 30363
USA 283                 
1 43339U 18036A   26194.51831527  .00000000  00000+0  00000+0 0  9992
2 43339   0.0181  51.7317 0001010 164.1991  36.1561  1.00270146 25551
COSMOS 2526             
1 43432U 18037A   26196.01215684 -.00000354  00000+0  00000+0 0  9997
2 43432   0.0358 106.6288 0000821 157.1060 161.5486  1.00268298 30231
APSTAR-6C               
1 43450U 18041A   26195.67586814 -.00000326  00000+0  00000+0 0  9998
2 43450   0.0593 289.3735 0000779 296.5328  83.9303  1.00273807 30085
BANGABANDHUSAT-1        
1 43463U 18044A   26196.79450913 -.00000373  00000+0  00000+0 0  9991
2 43463   0.0249  95.6095 0001717  30.9355 212.1996  1.00269801 29998
SES-12                  
1 43488U 18049A   26196.78974244 -.00000279  00000+0  00000+0 0  9995
2 43488   0.0111  21.5061 0000798 230.1019  61.3172  1.00269184 29706
FENGYUN 2H              
1 43491U 18050A   26196.85785584 -.00000139  00000+0  00000+0 0  9991
2 43491   3.1025  78.7284 0002306 133.9996 108.9194  1.00267068 29723
BEIDOU-2 IGSO-7         
1 43539U 18057A   26182.89122331 -.00000033  00000+0  00000+0 0  9998
2 43539  55.1981 162.9292 0104946 237.8611 308.6338  1.00246939 29273
TELSTAR 19V             
1 43562U 18059A   26196.75834101 -.00000290  00000+0  00000+0 0  9996
2 43562   0.0276 147.2534 0002846 343.1309  13.2143  1.00269497 29436
TELKOM 4 (MERAH PUTIH)  
1 43587U 18064A   26195.29528286 -.00000351  00000+0  00000+0 0  9999
2 43587   0.0219  81.5910 0000994  39.4509  25.4085  1.00269319 29159
TELSTAR 18V             
1 43611U 18069A   26194.52037462 -.00000298  00000+0  00000+0 0  9998
2 43611   0.0151 318.0250 0001663 158.6111 140.0899  1.00269998 28906
AZERSPACE 2 (IS-38)     
1 43632U 18074A   26196.85118248  .00000000  00000+0  00000+0 0  9997
2 43632   0.0246  58.5053 0001618  67.4827 159.2538  1.00273206 28732
HORIZONS-3E             
1 43633U 18074B   26194.64002854 -.00000035  00000+0  00000+0 0  9997
2 43633   0.0498 224.9289 0000940  53.6947  52.2963  1.00270118 28608
AEHF-4 (USA 288)        
1 43651U 18079A   26196.75764765 -.00000285  00000+0  00000+0 0  9999
2 43651   1.4403   6.3423 0058536 353.9038 138.5608  1.00276171 28588
BEIDOU-3 G1             
1 43683U 18085A   26196.80256918 -.00000121  00000+0  00000+0 0  9992
2 43683   2.9383  96.5942 0007998 356.5572 289.3821  1.00272475 28340
GSAT-29                 
1 43698U 18089A   26195.86846347  .00000075  00000+0  00000+0 0  9995
2 43698   0.0565 246.2149 0002955 199.3608 214.9248  1.00275871 28060
